OBJECT_NAME,OBJECT_ID,EPOCH,MEAN_MOTION,ECCENTRICITY,INCLINATION,RA_OF_ASC_NODE,ARG_OF_PERICENTER,MEAN_ANOMALY,EPHEMERIS_TYPE,CLASSIFICATION_TYPE,NORAD_CAT_ID,ELEMENT_SET_NO,REV_AT_EPOCH,BSTAR,MEAN_MOTION_DOT,MEAN_MOTION_DDOT
ONEWEB-0572,2023-004M,2026-07-18T19:19:14.907360,13.17649105,.0002028,87.9150,359.5753,91.8649,268.2715,0,U,55151,999,17164,-.56569E-3,-.207E-5,0
ONEWEB-0573,2023-004N,2026-07-18T18:07:52.419648,13.18683697,.0002751,87.9193,329.1907,93.6635,266.4811,0,U,55152,999,17385,-.48971E-4,-.6E-7,0
ONEWEB-0588,2023-004P,2026-07-18T19:47:26.088000,13.18686812,.0002078,87.9191,329.1762,86.5984,273.5385,0,U,55153,999,17386,-.13019E-3,-.38E-6,0
ONEWEB-0598,2023-004Q,2026-07-18T17:55:51.010752,13.11417051,.0002551,87.8888,14.7836,97.1858,262.9560,0,U,55154,999,17003,-.14862E-2,-.514E-5,0
ONEWEB-0599,2023-004R,2026-07-18T20:12:42.008832,13.17648702,.0001948,87.9152,359.5667,100.1498,259.9853,0,U,55155,999,17165,-.63906E-3,-.235E-5,0
ONEWEB-0614,2023-004S,2026-07-18T10:29:03.225696,13.11416211,.00017293,87.8883,14.8532,84.6551,275.4774,0,U,55156,999,16993,-.15855028E-2,-.549E-5,0
ONEWEB-0616,2023-004T,2026-07-18T19:24:05.992416,13.17648014,.0001954,87.9151,359.5776,121.8097,238.3225,0,U,55157,999,17186,-.58654E-3,-.215E-5,0
ONEWEB-0617,2023-004U,2026-07-18T04:42:21.194496,13.11416138,.00018481,87.8889,14.8945,77.5786,282.5549,0,U,55158,999,16992,-.83293632E-3,-.283E-5,0
ONEWEB-0618,2023-004V,2026-07-18T08:05:01.201344,15.13422384,.00126805,86.9111,164.9864,163.5774,196.5879,0,U,55159,999,18697,.41200033E-3,.7402E-4,0
ONEWEB-0619,2023-004W,2026-07-18T16:31:34.347936,13.17649117,.0001428,87.9160,359.5846,92.8269,267.3026,0,U,55160,999,17174,-.69513E-3,-.257E-5,0
ONEWEB-0620,2023-004X,2026-07-18T17:24:06.844608,13.11415361,.0002114,87.8883,14.7955,90.9494,269.1877,0,U,55161,999,16996,.17732E-3,.76E-6,0
ONEWEB-0621,2023-004Y,2026-07-17T23:44:30.399072,13.11418177,.00017099,87.8892,14.9342,84.6241,275.5082,0,U,55162,999,16984,-.9052852E-3,-.308E-5,0
ONEWEB-0622,2023-004Z,2026-07-18T10:51:02.289312,13.11418263,.00020945,87.8896,14.8451,70.8902,289.2453,0,U,55163,999,16989,-.6682204E-3,-.224E-5,0
ONEWEB-0623,2023-004AA,2026-07-18T09:06:54.155808,13.17648695,.00015227,87.9149,359.6721,70.3329,289.7966,0,U,55164,999,17169,.53910956E-4,.34E-6,0
ONEWEB-0624,2023-004AB,2026-07-18T19:43:07.549824,13.12929224,.0001759,87.8972,344.2904,92.5861,267.5469,0,U,55165,999,17222,-.79819E-3,-.276E-5,0
ONEWEB-0625,2023-004AC,2026-07-18T19:48:24.242976,13.17648016,.0001774,87.9150,359.5805,98.1462,261.9871,0,U,55166,999,17174,-.6462E-4,-.12E-6,0
ONEWEB-0626,2023-004AD,2026-07-18T19:33:50.527296,13.17649647,.0002266,87.9152,359.5814,96.0950,264.0439,0,U,55167,999,17174,-.32114E-4,0,0
ONEWEB-0627,2023-004AE,2026-07-18T17:27:28.859040,13.17648631,.000161,87.9150,359.5999,79.9070,280.2243,0,U,55168,999,17173,-.46637E-4,-.5E-7,0
ONEWEB-0628,2023-004AF,2026-07-18T19:33:11.306880,13.12444251,.0001552,87.8974,344.3656,81.1270,279.0034,0,U,55169,999,17218,-.28484E-2,-.1012E-4,0
ONEWEB-0629,2023-004AG,2026-07-18T20:30:56.160288,13.17649986,.0001531,87.9149,359.5702,93.5747,266.5559,0,U,55170,999,17175,-.66751E-4,-.13E-6,0
ONEWEB-0631,2023-004AH,2026-07-18T19:37:43.447872,13.18686756,.0002276,87.9202,329.1466,89.8707,270.2686,0,U,55171,999,17384,-.22752E-3,-.77E-6,0
ONEWEB-0709,2023-004AJ,2026-07-18T18:59:21.066720,13.11415867,.0002707,87.8884,14.7849,96.6698,263.4738,0,U,55172,999,17001,.13393E-2,.487E-5,0
ONEWEB-0710,2023-004AK,2026-07-18T09:55:30.346752,13.17648415,.00018663,87.9146,359.6534,88.3255,271.8090,0,U,55173,999,17169,.13888736E-4,.18E-6,0
ONEWEB-0711,2023-004AL,2026-07-18T18:17:49.989696,13.11418920,.0001766,87.8887,14.7790,67.9395,292.1920,0,U,55174,999,16997,-.43376E-3,-.141E-5,0
ONEWEB-0713,2023-004AM,2026-07-18T00:26:02.073120,13.11416772,.00018014,87.8888,14.9292,78.6696,281.4634,0,U,55175,999,16986,.14733272E-2,.535E-5,0
ONEWEB-0715,2023-004AN,2026-07-18T18:37:22.935360,13.11418182,.0002531,87.8890,14.7785,88.6417,271.5001,0,U,55176,999,17000,.13018E-2,.474E-5,0
ONEWEB-0716,2023-004AP,2026-07-18T20:41:52.447776,13.17648239,.0001831,87.9149,359.5668,100.9406,259.1931,0,U,55177,999,17175,-.6703E-4,-.13E-6,0
ONEWEB-0717,2023-004AQ,2026-07-18T20:17:34.019232,13.17648752,.0002022,87.9161,359.5608,77.4955,282.6403,0,U,55178,999,17180,-.43513E-3,-.156E-5,0
ONEWEB-0719,2023-004AR,2026-07-18T09:36:02.975616,13.17648914,.00017161,87.9160,359.6295,96.5325,263.6002,0,U,55179,999,17169,-.64953255E-3,-.239E-5,0
ONEWEB-0530,2023-029A,2026-07-18T18:09:00.781920,13.20772246,.0001738,87.9172,268.1751,87.9672,272.1660,0,U,55796,999,16531,-.31581E-3,-.115E-5,0
