ONEWEB-0572             
1 55151U 23004M   26199.80503365 -.00000207  00000+0 -56569-3 0  9997
2 55151  87.9150 359.5753 0002028  91.8649 268.2715 13.17649105171642
ONEWEB-0573             
1 55152U 23004N   26199.75546782 -.00000006  00000+0 -48971-4 0  9998
2 55152  87.9193 329.1907 0002751  93.6635 266.4811 13.18683697173859
ONEWEB-0588             
1 55153U 23004P   26199.82460750 -.00000038  00000+0 -13019-3 0  9996
2 55153  87.9191 329.1762 0002078  86.5984 273.5385 13.18686812173865
ONEWEB-0598             
1 55154U 23004Q   26199.74711818 -.00000514  00000+0 -14862-2 0  9997
2 55154  87.8888  14.7836 0002551  97.1858 262.9560 13.11417051170034
ONEWEB-0599             
1 55155U 23004R   26199.84215288 -.00000235  00000+0 -63906-3 0  9993
2 55155  87.9152 359.5667 0001948 100.1498 259.9853 13.17648702171651
ONEWEB-0614             
1 55156U 23004S   26199.43684289 -.00000549  00000+0 -15855-2 0  9997
2 55156  87.8883  14.8532 0001729  84.6551 275.4774 13.11416211169932
ONEWEB-0616             
1 55157U 23004T   26199.80840269 -.00000215  00000+0 -58654-3 0  9996
2 55157  87.9151 359.5776 0001954 121.8097 238.3225 13.17648014171868
ONEWEB-0617             
1 55158U 23004U   26199.19607864 -.00000283  00000+0 -83294-3 0  9994
2 55158  87.8889  14.8945 0001848  77.5786 282.5549 13.11416138169927
ONEWEB-0618             
1 55159U 23004V   26199.33681946  .00007402  00000+0  41200-3 0  9993
2 55159  86.9111 164.9864 0012680 163.5774 196.5879 15.13422384186970
ONEWEB-0619             
1 55160U 23004W   26199.68859199 -.00000257  00000+0 -69513-3 0  9990
2 55160  87.9160 359.5846 0001428  92.8269 267.3026 13.17649117171747
ONEWEB-0620             
1 55161U 23004X   26199.72507922  .00000076  00000+0  17732-3 0  9993
2 55161  87.8883  14.7955 0002114  90.9494 269.1877 13.11415361169963
ONEWEB-0621             
1 55162U 23004Y   26198.98924073 -.00000308  00000+0 -90529-3 0  9996
2 55162  87.8892  14.9342 0001709  84.6241 275.5082 13.11418177169849
ONEWEB-0622             
1 55163U 23004Z   26199.45210983 -.00000224  00000+0 -66822-3 0  9994
2 55163  87.8896  14.8451 0002094  70.8902 289.2453 13.11418263169898
ONEWEB-0623             
1 55164U 23004AA  26199.37979347  .00000034  00000+0  53911-4 0  9995
2 55164  87.9149 359.6721 0001522  70.3329 289.7966 13.17648695171699
ONEWEB-0624             
1 55165U 23004AB  26199.82161516 -.00000276  00000+0 -79819-3 0  9991
2 55165  87.8972 344.2904 0001759  92.5861 267.5469 13.12929224172222
ONEWEB-0625             
1 55166U 23004AC  26199.82528059 -.00000012  00000+0 -64620-4 0  9994
2 55166  87.9150 359.5805 0001774  98.1462 261.9871 13.17648016171740
ONEWEB-0626             
1 55167U 23004AD  26199.81516814  .00000000  00000+0 -32114-4 0  9999
2 55167  87.9152 359.5814 0002266  96.0950 264.0439 13.17649647171744
ONEWEB-0627             
1 55168U 23004AE  26199.72741735 -.00000005  00000+0 -46637-4 0  9993
2 55168  87.9150 359.5999 0001610  79.9070 280.2243 13.17648631171736
ONEWEB-0628             
1 55169U 23004AF  26199.81471420 -.00001012  00000+0 -28484-2 0  9992
2 55169  87.8974 344.3656 0001552  81.1270 279.0034 13.12444251172185
ONEWEB-0629             
1 55170U 23004AG  26199.85481667 -.00000013  00000+0 -66751-4 0  9993
2 55170  87.9149 359.5702 0001531  93.5747 266.5559 13.17649986171757
ONEWEB-0631             
1 55171U 23004AH  26199.81786398 -.00000077  00000+0 -22752-3 0  9991
2 55171  87.9202 329.1466 0002276  89.8707 270.2686 13.18686756173841
ONEWEB-0709             
1 55172U 23004AJ  26199.79121605  .00000487  00000+0  13393-2 0  9996
2 55172  87.8884  14.7849 0002707  96.6698 263.4738 13.11415867170017
ONEWEB-0710             
1 55173U 23004AK  26199.41354568  .00000018  00000+0  13889-4 0  9994
2 55173  87.9146 359.6534 0001866  88.3255 271.8090 13.17648415171696
ONEWEB-0711             
1 55174U 23004AL  26199.76238414 -.00000141  00000+0 -43376-3 0  9996
2 55174  87.8887  14.7790 0001766  67.9395 292.1920 13.11418920169974
ONEWEB-0713             
1 55175U 23004AM  26199.01807955  .00000535  00000+0  14733-2 0  9996
2 55175  87.8888  14.9292 0001801  78.6696 281.4634 13.11416772169862
ONEWEB-0715             
1 55176U 23004AN  26199.77595990  .00000474  00000+0  13018-2 0  9990
2 55176  87.8890  14.7785 0002531  88.6417 271.5001 13.11418182170007
ONEWEB-0716             
1 55177U 23004AP  26199.86241259 -.00000013  00000+0 -67030-4 0  9993
2 55177  87.9149 359.5668 0001831 100.9406 259.1931 13.17648239171755
ONEWEB-0717             
1 55178U 23004AQ  26199.84553263 -.00000156  00000+0 -43513-3 0  9990
2 55178  87.9161 359.5608 0002022  77.4955 282.6403 13.17648752171805
ONEWEB-0719             
1 55179U 23004AR  26199.40003444 -.00000239  00000+0 -64953-3 0  9997
2 55179  87.9160 359.6295 0001716  96.5325 263.6002 13.17648914171691
ONEWEB-0530             
1 55796U 23029A   26199.75625905 -.00000115  00000+0 -31581-3 0  9993
2 55796  87.9172 268.1751 0001738  87.9672 272.1660 13.20772246165310
